[{"OBJECT_NAME":"STARLINK-36985","OBJECT_ID":"2026-039AE","EPOCH":"2026-03-06T14:00:01.000224","MEAN_MOTION":15.97154925,"ECCENTRICITY":0.00019206,"INCLINATION":42.9975,"RA_OF_ASC_NODE":74.0094,"ARG_OF_PERICENTER":274.8677,"MEAN_ANOMALY":42.9947,"EPHEMERIS_TYPE":0,"CLASSIFICATION_TYPE":"U","NORAD_CAT_ID":68014,"ELEMENT_SET_NO":999,"REV_AT_EPOCH":237,"BSTAR":-0.0032639818,"MEAN_MOTION_DOT":-0.01476222,"MEAN_MOTION_DDOT":0.00064881535},{"OBJECT_NAME":"STARLINK-36335","OBJECT_ID":"2026-040A","EPOCH":"2026-03-05T20:59:01.978080","MEAN_MOTION":16.11618122,"ECCENTRICITY":0.00013275,"INCLINATION":97.2861,"RA_OF_ASC_NODE":12.6592,"ARG_OF_PERICENTER":36.5206,"MEAN_ANOMALY":323.6169,"EPHEMERIS_TYPE":0,"CLASSIFICATION_TYPE":"U","NORAD_CAT_ID":68015,"ELEMENT_SET_NO":999,"REV_AT_EPOCH":72,"BSTAR":9.9844e-6,"MEAN_MOTION_DOT":9.585e-5,"MEAN_MOTION_DDOT":2.362899e-6},{"OBJECT_NAME":"STARLINK-36923","OBJECT_ID":"2026-040B","EPOCH":"2026-03-05T20:58:35.946624","MEAN_MOTION":16.11809964,"ECCENTRICITY":0.00012403,"INCLINATION":97.2862,"RA_OF_ASC_NODE":12.6596,"ARG_OF_PERICENTER":28.7023,"MEAN_ANOMALY":331.4329,"EPHEMERIS_TYPE":0,"CLASSIFICATION_TYPE":"U","NORAD_CAT_ID":68016,"ELEMENT_SET_NO":999,"REV_AT_EPOCH":72,"BSTAR":-3.6909654e-5,"MEAN_MOTION_DOT":-0.00039361,"MEAN_MOTION_DDOT":2.99416e-6},{"OBJECT_NAME":"STARLINK-36568","OBJECT_ID":"2026-040C","EPOCH":"2026-03-05T23:57:13.207392","MEAN_MOTION":16.11778226,"ECCENTRICITY":6.434e-5,"INCLINATION":97.2865,"RA_OF_ASC_NODE":12.7983,"ARG_OF_PERICENTER":79.3353,"MEAN_ANOMALY":280.8005,"EPHEMERIS_TYPE":0,"CLASSIFICATION_TYPE":"U","NORAD_CAT_ID":68017,"ELEMENT_SET_NO":999,"REV_AT_EPOCH":74,"BSTAR":2.7875773e-5,"MEAN_MOTION_DOT":0.00028377,"MEAN_MOTION_DDOT":2.706731e-6},{"OBJECT_NAME":"STARLINK-36930","OBJECT_ID":"2026-040D","EPOCH":"2026-03-05T23:57:40.236768","MEAN_MOTION":16.11560084,"ECCENTRICITY":8.825e-5,"INCLINATION":97.2862,"RA_OF_ASC_NODE":12.7971,"ARG_OF_PERICENTER":91.8438,"MEAN_ANOMALY":268.2948,"EPHEMERIS_TYPE":0,"CLASSIFICATION_TYPE":"U","NORAD_CAT_ID":68018,"ELEMENT_SET_NO":999,"REV_AT_EPOCH":74,"BSTAR":2.6870429e-5,"MEAN_MOTION_DOT":0.00026925,"MEAN_MOTION_DDOT":2.665855e-6},{"OBJECT_NAME":"STARLINK-36921","OBJECT_ID":"2026-040E","EPOCH":"2026-03-05T23:56:48.369120","MEAN_MOTION":16.11975695,"ECCENTRICITY":0.00015715,"INCLINATION":97.2864,"RA_OF_ASC_NODE":12.7985,"ARG_OF_PERICENTER":117.0515,"MEAN_ANOMALY":243.093,"EPHEMERIS_TYPE":0,"CLASSIFICATION_TYPE":"U","NORAD_CAT_ID":68019,"ELEMENT_SET_NO":999,"REV_AT_EPOCH":74,"BSTAR":1.3001081e-5,"MEAN_MOTION_DOT":0.00013027,"MEAN_MOTION_DDOT":2.403282e-6},{"OBJECT_NAME":"STARLINK-36928","OBJECT_ID":"2026-040F","EPOCH":"2026-03-05T23:57:01.725696","MEAN_MOTION":16.1185392,"ECCENTRICITY":0.00010666,"INCLINATION":97.2866,"RA_OF_ASC_NODE":12.798,"ARG_OF_PERICENTER":111.5184,"MEAN_ANOMALY":248.6215,"EPHEMERIS_TYPE":0,"CLASSIFICATION_TYPE":"U","NORAD_CAT_ID":68020,"ELEMENT_SET_NO":999,"REV_AT_EPOCH":74,"BSTAR":-5.539195e-6,"MEAN_MOTION_DOT":-6.546e-5,"MEAN_MOTION_DDOT":2.330995e-6},{"OBJECT_NAME":"STARLINK-36858","OBJECT_ID":"2026-040G","EPOCH":"2026-03-05T23:56:35.251008","MEAN_MOTION":16.12025112,"ECCENTRICITY":0.00014535,"INCLINATION":97.286,"RA_OF_ASC_NODE":12.7982,"ARG_OF_PERICENTER":110.0366,"MEAN_ANOMALY":250.1075,"EPHEMERIS_TYPE":0,"CLASSIFICATION_TYPE":"U","NORAD_CAT_ID":68021,"ELEMENT_SET_NO":999,"REV_AT_EPOCH":74,"BSTAR":-0.00011422996,"MEAN_MOTION_DOT":-0.00122004,"MEAN_MOTION_DDOT":8.892241e-6},{"OBJECT_NAME":"STARLINK-36916","OBJECT_ID":"2026-040H","EPOCH":"2026-03-05T23:56:21.579072","MEAN_MOTION":16.12170074,"ECCENTRICITY":0.00010784,"INCLINATION":97.2863,"RA_OF_ASC_NODE":12.799,"ARG_OF_PERICENTER":103.3373,"MEAN_ANOMALY":256.8033,"EPHEMERIS_TYPE":0,"CLASSIFICATION_TYPE":"U","NORAD_CAT_ID":68022,"ELEMENT_SET_NO":999,"REV_AT_EPOCH":74,"BSTAR":-1.0943582e-5,"MEAN_MOTION_DOT":-0.00012465,"MEAN_MOTION_DDOT":2.380256e-6},{"OBJECT_NAME":"STARLINK-36871","OBJECT_ID":"2026-040J","EPOCH":"2026-03-05T23:56:08.659680","MEAN_MOTION":16.12265508,"ECCENTRICITY":8.826e-5,"INCLINATION":97.2861,"RA_OF_ASC_NODE":12.7981,"ARG_OF_PERICENTER":75.6591,"MEAN_ANOMALY":284.4792,"EPHEMERIS_TYPE":0,"CLASSIFICATION_TYPE":"U","NORAD_CAT_ID":68023,"ELEMENT_SET_NO":999,"REV_AT_EPOCH":74,"BSTAR":1.8645808e-5,"MEAN_MOTION_DOT":0.00019384,"MEAN_MOTION_DDOT":2.505439e-6},{"OBJECT_NAME":"STARLINK-36891","OBJECT_ID":"2026-040K","EPOCH":"2026-03-05T23:55:52.846752","MEAN_MOTION":16.1241082,"ECCENTRICITY":0.00011811,"INCLINATION":97.2861,"RA_OF_ASC_NODE":12.7994,"ARG_OF_PERICENTER":130.9298,"MEAN_ANOMALY":229.209,"EPHEMERIS_TYPE":0,"CLASSIFICATION_TYPE":"U","NORAD_CAT_ID":68024,"ELEMENT_SET_NO":999,"REV_AT_EPOCH":74,"BSTAR":-8.71396e-7,"MEAN_MOTION_DOT":-1.683e-5,"MEAN_MOTION_DDOT":2.318654e-6},{"OBJECT_NAME":"STARLINK-36378","OBJECT_ID":"2026-040L","EPOCH":"2026-03-05T23:55:24.686400","MEAN_MOTION":16.12653204,"ECCENTRICITY":0.00013474,"INCLINATION":97.2861,"RA_OF_ASC_NODE":12.7997,"ARG_OF_PERICENTER":98.166,"MEAN_ANOMALY":261.9778,"EPHEMERIS_TYPE":0,"CLASSIFICATION_TYPE":"U","NORAD_CAT_ID":68025,"ELEMENT_SET_NO":999,"REV_AT_EPOCH":74,"BSTAR":4.2449714e-5,"MEAN_MOTION_DOT":0.0004628,"MEAN_MOTION_DDOT":3.359457e-6},{"OBJECT_NAME":"STARLINK-36884","OBJECT_ID":"2026-040M","EPOCH":"2026-03-05T23:55:38.445600","MEAN_MOTION":16.12528427,"ECCENTRICITY":8.018e-5,"INCLINATION":97.286,"RA_OF_ASC_NODE":12.7993,"ARG_OF_PERICENTER":88.6237,"MEAN_ANOMALY":271.514,"EPHEMERIS_TYPE":0,"CLASSIFICATION_TYPE":"U","NORAD_CAT_ID":68026,"ELEMENT_SET_NO":999,"REV_AT_EPOCH":74,"BSTAR":-2.413902e-6,"MEAN_MOTION_DOT":-3.384e-5,"MEAN_MOTION_DDOT":2.322163e-6},{"OBJECT_NAME":"STARLINK-36940","OBJECT_ID":"2026-040N","EPOCH":"2026-03-05T23:50:00.381408","MEAN_MOTION":16.14665968,"ECCENTRICITY":0.0001912,"INCLINATION":97.2839,"RA_OF_ASC_NODE":12.8052,"ARG_OF_PERICENTER":71.0883,"MEAN_ANOMALY":289.0611,"EPHEMERIS_TYPE":0,"CLASSIFICATION_TYPE":"U","NORAD_CAT_ID":68027,"ELEMENT_SET_NO":999,"REV_AT_EPOCH":74,"BSTAR":0.00011962725,"MEAN_MOTION_DOT":0.00151361,"MEAN_MOTION_DDOT":1.390064e-5},{"OBJECT_NAME":"STARLINK-36253","OBJECT_ID":"2026-040P","EPOCH":"2026-03-05T22:27:10.541088","MEAN_MOTION":16.08421062,"ECCENTRICITY":5.731e-5,"INCLINATION":97.2837,"RA_OF_ASC_NODE":12.729,"ARG_OF_PERICENTER":95.1723,"MEAN_ANOMALY":264.9625,"EPHEMERIS_TYPE":0,"CLASSIFICATION_TYPE":"U","NORAD_CAT_ID":68028,"ELEMENT_SET_NO":999,"REV_AT_EPOCH":73,"BSTAR":-0.000506677,"MEAN_MOTION_DOT":-0.0042559,"MEAN_MOTION_DDOT":7.4072379e-5},{"OBJECT_NAME":"STARLINK-36944","OBJECT_ID":"2026-040Q","EPOCH":"2026-03-05T23:55:11.734176","MEAN_MOTION":16.12768114,"ECCENTRICITY":0.00018073,"INCLINATION":97.2854,"RA_OF_ASC_NODE":12.7991,"ARG_OF_PERICENTER":104.5186,"MEAN_ANOMALY":255.63,"EPHEMERIS_TYPE":0,"CLASSIFICATION_TYPE":"U","NORAD_CAT_ID":68029,"ELEMENT_SET_NO":999,"REV_AT_EPOCH":74,"BSTAR":0.00010565724,"MEAN_MOTION_DOT":0.00117197,"MEAN_MOTION_DDOT":8.996545e-6}]
